GLOBALSTAR M067         
1 32263U 07048A   25239.24776451 -.00000054  00000+0  31945-3 0  9996
2 32263  51.9712 188.0018 0001076 114.0569  33.4157 12.40676335818309
GLOBALSTAR M070         
1 32264U 07048B   25239.15570081 -.00000081  00000+0  12761-3 0  9993
2 32264  51.9739 272.3066 0000155 127.6511 273.2071 12.62321800822631
GLOBALSTAR M066         
1 32265U 07048C   25239.26506728 -.00000064  00000+0  26165-3 0  9997
2 32265  51.9601 181.6700 0004453 143.1142  23.5089 12.30350014824041
GLOBALSTAR M068         
1 32266U 07048D   25239.01192150 -.00000045  00000+0  32799-3 0  9990
2 32266  51.9879  86.3583 0000665 346.4486 177.8348 12.62827374826506
GLOBALSTAR M079         
1 37188U 10054A   25239.20734186 -.00000089  00000+0  82222-4 0  9996
2 37188  52.0035 283.5929 0000651 103.8896 328.1512 12.62266362685422
GLOBALSTAR M074         
1 37189U 10054B   25239.24327544 -.00000090  00000+0  77133-4 0  9994
2 37189  52.0013 282.7967 0000455 130.4346 343.6679 12.62271033686035
GLOBALSTAR M076         
1 37190U 10054C   25239.08989723 -.00000078  00000+0  14627-3 0  9995
2 37190  52.0025 283.4403 0000672 121.8444 255.2632 12.62264993685737
GLOBALSTAR M077         
1 37191U 10054D   25239.25489072 -.00000114  00000+0 -56454-4 0  9994
2 37191  52.0048 239.8028 0000257  96.0518  18.0638 12.62323076686128
